[{"OBJECT_NAME":"STARLINK-1276","OBJECT_ID":"2020-019J","EPOCH":"2026-03-09T16:25:14.602656","MEAN_MOTION":15.06875764,"ECCENTRICITY":0.00025174,"INCLINATION":53.0577,"RA_OF_ASC_NODE":166.6421,"ARG_OF_PERICENTER":41.2868,"MEAN_ANOMALY":318.8311,"EPHEMERIS_TYPE":0,"CLASSIFICATION_TYPE":"U","NORAD_CAT_ID":45368,"ELEMENT_SET_NO":999,"REV_AT_EPOCH":32973,"BSTAR":0.0039831661,"MEAN_MOTION_DOT":0.00060332,"MEAN_MOTION_DDOT":0},{"OBJECT_NAME":"FENGYUN 1C DEB","OBJECT_ID":"1999-025CKD","EPOCH":"2026-02-28T13:50:26.166336","MEAN_MOTION":14.88090782,"ECCENTRICITY":0.00820173,"INCLINATION":99.4445,"RA_OF_ASC_NODE":2.7077,"ARG_OF_PERICENTER":355.7359,"MEAN_ANOMALY":4.3144,"EPHEMERIS_TYPE":0,"CLASSIFICATION_TYPE":"U","NORAD_CAT_ID":31878,"ELEMENT_SET_NO":999,"REV_AT_EPOCH":99250,"BSTAR":0.001844343,"MEAN_MOTION_DOT":0.00018017,"MEAN_MOTION_DDOT":0}]
